GLOBALSTAR M057         
1 25943U 99058A   25051.90621674 -.00000021  00000+0  65414-3 0  9998
2 25943  52.0006 318.2097 0002840 125.4607 234.6508 12.24813074152689
GLOBALSTAR M059         
1 25944U 99058B   25051.82829022 -.00000072  00000+0  18030-3 0  9995
2 25944  52.0010 161.9601 0001209 108.2677  38.8274 11.99973912560072
GLOBALSTAR M056         
1 25945U 99058C   25052.34948762 -.00000135  00000+0 -55037-3 0  9996
2 25945  51.9955 165.4818 0000267 359.4223  37.3335 12.04777402148705
GLOBALSTAR M031         
1 25946U 99058D   25052.18909340  .00000019  00000+0  11152-2 0  9996
2 25946  51.9963  65.1965 0001117 302.1347 135.7026 12.16029499150679
GLOBALSTAR M039         
1 25961U 99062A   25051.84892903 -.00000047  00000+0  31879-3 0  9997
2 25961  51.9830 263.0615 0003632  89.0471 271.0812 12.62319196165550
GLOBALSTAR M034         
1 25962U 99062B   25051.93392106 -.00000025  00000+0  89594-3 0  9991
2 25962  51.9893 313.5827 0013817 178.5749 263.4185 11.79444638124655
GLOBALSTAR M029         
1 25963U 99062C   25052.41366821 -.00000065  00000+0  25720-3 0  9996
2 25963  51.9814  48.5109 0002398 247.3969 263.7493 11.99891719155273
GLOBALSTAR M061         
1 25964U 99062D   25051.68858759 -.00000067  00000+0  21547-3 0  9996
2 25964  51.9786 136.7057 0006684 108.6797  33.9764 11.76770932107468
